METEOSAT-11 (MSG-4)     
1 40732U 15034A   26062.08921993  .00000047  00000+0  00000+0 0  9995
2 40732   2.9341  71.6891 0001800 270.8063 219.9029  1.00265683  6159
ELEKTRO-L 2             
1 41105U 15074A   26061.88740795 -.00000131  00000+0  00000+0 0  9995
2 41105   6.4268  71.8299 0003496 235.4549 158.3340  1.00270708 37446
INSAT-3DR               
1 41752U 16054A   26062.10196000 -.00000092  00000+0  00000+0 0  9998
2 41752   0.0435  97.3591 0013355 184.2380 349.9514  1.00272272 34757
HIMAWARI-9              
1 41836U 16064A   26061.83377823 -.00000291  00000+0  00000+0 0  9996
2 41836   0.0170 189.1650 0001127 171.7739 240.5949  1.00272669 34146
GOES 16                 
1 41866U 16071A   26062.15392248 -.00000106  00000+0  00000+0 0  9996
2 41866   0.1441  90.2185 0002599 216.3842 165.0243  1.00271628 34042
FENGYUN 4A              
1 41882U 16077A   26062.32573449 -.00000371  00000+0  00000+0 0  9997
2 41882   2.0531  81.4319 0007352 135.1146 185.3417  1.00280074 33861
CYGFM05                 
1 41884U 16078A   26061.88191075  .00027874  00000+0  45143-3 0  9998
2 41884  34.9565 242.0476 0006933 227.0707 132.9434 15.51768101512201
CYGFM04                 
1 41885U 16078B   26061.75347913  .00033809  00000+0  48392-3 0  9993
2 41885  34.9318 215.2099 0006069 259.5153 100.4887 15.55134948512387
CYGFM02                 
1 41886U 16078C   26061.85691096  .00045702  00000+0  60564-3 0  9999
2 41886  34.9405 211.5722 0007055 260.5677  99.4249 15.57149529512546
CYGFM01                 
1 41887U 16078D   26061.91102205  .00028729  00000+0  45806-3 0  9998
2 41887  34.9394 243.6807 0006498 218.7493 141.2764 15.52200156512159
CYGFM08                 
1 41888U 16078E   26061.83333584  .00031637  00000+0  47772-3 0  9992
2 41888  34.9427 226.1438 0008125 243.3728 116.6163 15.53671040512386
CYGFM07                 
1 41890U 16078G   26061.80295089  .00032976  00000+0  48570-3 0  9993
2 41890  34.9445 214.8351 0006682 263.2097  96.7866 15.54357251512400
CYGFM03                 
1 41891U 16078H   26061.77407581  .00023532  00000+0  34714-3 0  9995
2 41891  34.9401 217.0068 0005772 249.3234 110.6871 15.54370064512375
FENGYUN 3D              
1 43010U 17072A   26062.22283086  .00000093  00000+0  65913-4 0  9991
2 43010  99.0011  34.7925 0001898  26.3204 333.8067 14.19712696429958
NOAA 20 (JPSS-1)        
1 43013U 17073A   26062.13229778  .00000081  00000+0  59529-4 0  9996
2 43013  98.7685   2.5849 0000900 145.6534 214.4700 14.19533980429423
GOES 17                 
1 43226U 18022A   26062.14836481 -.00000198  00000+0  00000+0 0  9998
2 43226   0.6649  87.5818 0002322 219.7732 177.4660  1.00270443 29363
FENGYUN 2H              
1 43491U 18050A   26062.10291333 -.00000142  00000+0  00000+0 0  9999
2 43491   2.7571  80.3700 0001989 173.3681  23.2400  1.00272569 28372
